GSAT0233 (GALILEO 33)   
1 67160U 25302A   26116.60777961  .00000042  00000+0  00000+0 0  9995
2 67160  54.3025 103.5985 0002100 244.3299 296.6080  1.70474442  2240
GSAT0234 (GALILEO 34)   
1 67162U 25302C   26117.48698374  .00000039  00000+0  00000+0 0  9990
2 67162  54.3058 103.5724 0003915 291.9909 248.6444  1.70474494  2316
GPS BIII-9  (PRN 20)    
1 67588U 26017A   26110.36440864  .00000023  00000+0  00000+0 0  9998
2 67588  55.0497  91.0746 0024611 254.1378 105.5744  2.00572232430452
GPS BIII-10             
1 68791U 26087A   26112.34150053  .00002417  00000+0  19778-2 0  9994
2 68791  54.9968 210.8716 5942075 270.2176  26.1146  4.03281331    56
